[{"OBJECT_NAME":"ORBCOMM FM19","OBJECT_ID":"1998-046C","EPOCH":"2026-03-09T00:07:17.563296","MEAN_MOTION":14.39270127,"ECCENTRICITY":0.00018158,"INCLINATION":44.9959,"RA_OF_ASC_NODE":359.683,"ARG_OF_PERICENTER":187.4459,"MEAN_ANOMALY":272.3467,"EPHEMERIS_TYPE":0,"CLASSIFICATION_TYPE":"U","NORAD_CAT_ID":25415,"ELEMENT_SET_NO":999,"REV_AT_EPOCH":44234,"BSTAR":0.00058926699,"MEAN_MOTION_DOT":1.703e-5,"MEAN_MOTION_DDOT":0},{"OBJECT_NAME":"COSMOS 1814","OBJECT_ID":"1987-006A","EPOCH":"2026-03-09T11:04:25.150944","MEAN_MOTION":14.35975134,"ECCENTRICITY":0.00252187,"INCLINATION":74.0536,"RA_OF_ASC_NODE":80.4753,"ARG_OF_PERICENTER":206.8078,"MEAN_ANOMALY":153.1774,"EPHEMERIS_TYPE":0,"CLASSIFICATION_TYPE":"U","NORAD_CAT_ID":17303,"ELEMENT_SET_NO":999,"REV_AT_EPOCH":4792,"BSTAR":6.2575979e-5,"MEAN_MOTION_DOT":1.56e-6,"MEAN_MOTION_DDOT":0}]
